[{"OBJECT_NAME":"STARLINK-35078","OBJECT_ID":"2025-200D","EPOCH":"2026-03-09T17:10:39.633600","MEAN_MOTION":15.0564911,"ECCENTRICITY":6.756e-5,"INCLINATION":97.6023,"RA_OF_ASC_NODE":139.8053,"ARG_OF_PERICENTER":102.1447,"MEAN_ANOMALY":257.9856,"EPHEMERIS_TYPE":0,"CLASSIFICATION_TYPE":"U","NORAD_CAT_ID":65523,"ELEMENT_SET_NO":999,"REV_AT_EPOCH":2913,"BSTAR":0.00024269803,"MEAN_MOTION_DOT":3.443e-5,"MEAN_MOTION_DDOT":0},{"OBJECT_NAME":"IRIDIUM 33 DEB","OBJECT_ID":"1997-051ABJ","EPOCH":"2026-03-07T11:02:11.153184","MEAN_MOTION":15.04355632,"ECCENTRICITY":0.00105712,"INCLINATION":86.348,"RA_OF_ASC_NODE":321.5871,"ARG_OF_PERICENTER":86.7515,"MEAN_ANOMALY":38.318,"EPHEMERIS_TYPE":0,"CLASSIFICATION_TYPE":"U","NORAD_CAT_ID":40996,"ELEMENT_SET_NO":999,"REV_AT_EPOCH":63758,"BSTAR":0.0045408492,"MEAN_MOTION_DOT":0.00063892,"MEAN_MOTION_DDOT":0}]
